CCSDS_OMM_VERS = 2.0
CREATION_DATE  = 
ORIGINATOR     = 

OBJECT_NAME    = SOYUZ-MS 28
OBJECT_ID      = 2025-275A
CENTER_NAME    = EARTH
REF_FRAME      = TEME
TIME_SYSTEM    = UTC
MEAN_ELEMENT_THEORY = SGP/SGP4

EPOCH          = 2025-12-21T22:57:18.016992
MEAN_MOTION    = 15.49714244
ECCENTRICITY   = .00031643
INCLINATION    = 51.6324
RA_OF_ASC_NODE = 96.8363
ARG_OF_PERICENTER = 283.4657
MEAN_ANOMALY   = 76.5979

EPHEMERIS_TYPE = 0
CLASSIFICATION_TYPE = U
NORAD_CAT_ID   = 66664
ELEMENT_SET_NO = 999
REV_AT_EPOCH   = 128
BSTAR          = .20227117E-3
MEAN_MOTION_DOT = .1099E-3
MEAN_MOTION_DDOT = 0

CCSDS_OMM_VERS = 2.0
CREATION_DATE  = 
ORIGINATOR     = 

OBJECT_NAME    = 1998-067XS
OBJECT_ID      = 1998-067XS
CENTER_NAME    = EARTH
REF_FRAME      = TEME
TIME_SYSTEM    = UTC
MEAN_ELEMENT_THEORY = SGP/SGP4

EPOCH          = 2025-12-21T16:28:28.031520
MEAN_MOTION    = 15.51020739
ECCENTRICITY   = .00029292
INCLINATION    = 51.6318
RA_OF_ASC_NODE = 98.0337
ARG_OF_PERICENTER = 244.8838
MEAN_ANOMALY   = 115.1848

EPHEMERIS_TYPE = 0
CLASSIFICATION_TYPE = U
NORAD_CAT_ID   = 66906
ELEMENT_SET_NO = 999
REV_AT_EPOCH   = 300
BSTAR          = .43070009E-3
MEAN_MOTION_DOT = .25109E-3
MEAN_MOTION_DDOT = 0

CCSDS_OMM_VERS = 2.0
CREATION_DATE  = 
ORIGINATOR     = 

OBJECT_NAME    = 1998-067XT
OBJECT_ID      = 1998-067XT
CENTER_NAME    = EARTH
REF_FRAME      = TEME
TIME_SYSTEM    = UTC
MEAN_ELEMENT_THEORY = SGP/SGP4

EPOCH          = 2025-12-21T16:14:38.831712
MEAN_MOTION    = 15.52487606
ECCENTRICITY   = .00038339
INCLINATION    = 51.6315
RA_OF_ASC_NODE = 97.9690
ARG_OF_PERICENTER = 280.3147
MEAN_ANOMALY   = 79.7410

EPHEMERIS_TYPE = 0
CLASSIFICATION_TYPE = U
NORAD_CAT_ID   = 66907
ELEMENT_SET_NO = 999
REV_AT_EPOCH   = 300
BSTAR          = .94407034E-3
MEAN_MOTION_DOT = .58863E-3
MEAN_MOTION_DDOT = 0

CCSDS_OMM_VERS = 2.0
CREATION_DATE  = 
ORIGINATOR     = 

OBJECT_NAME    = 1998-067XU
OBJECT_ID      = 1998-067XU
CENTER_NAME    = EARTH
REF_FRAME      = TEME
TIME_SYSTEM    = UTC
MEAN_ELEMENT_THEORY = SGP/SGP4

EPOCH          = 2025-12-21T00:46:29.963136
MEAN_MOTION    = 15.52510982
ECCENTRICITY   = .00039042
INCLINATION    = 51.6311
RA_OF_ASC_NODE = 101.1653
ARG_OF_PERICENTER = 276.2494
MEAN_ANOMALY   = 83.8051

EPHEMERIS_TYPE = 0
CLASSIFICATION_TYPE = U
NORAD_CAT_ID   = 66908
ELEMENT_SET_NO = 999
REV_AT_EPOCH   = 290
BSTAR          = .80289362E-3
MEAN_MOTION_DOT = .49977E-3
MEAN_MOTION_DDOT = 0

CCSDS_OMM_VERS = 2.0
CREATION_DATE  = 
ORIGINATOR     = 

OBJECT_NAME    = SILVERSAT
OBJECT_ID      = 1998-067XV
CENTER_NAME    = EARTH
REF_FRAME      = TEME
TIME_SYSTEM    = UTC
MEAN_ELEMENT_THEORY = SGP/SGP4

EPOCH          = 2025-12-22T06:05:47.770368
MEAN_MOTION    = 15.52855909
ECCENTRICITY   = .00038121
INCLINATION    = 51.6306
RA_OF_ASC_NODE = 95.0749
ARG_OF_PERICENTER = 288.8858
MEAN_ANOMALY   = 71.1718

EPHEMERIS_TYPE = 0
CLASSIFICATION_TYPE = U
NORAD_CAT_ID   = 66909
ELEMENT_SET_NO = 999
REV_AT_EPOCH   = 309
BSTAR          = .12357429E-2
MEAN_MOTION_DOT = .78426E-3
MEAN_MOTION_DDOT = 0

CCSDS_OMM_VERS = 2.0
CREATION_DATE  = 
ORIGINATOR     = 

OBJECT_NAME    = 1998-067XW
OBJECT_ID      = 1998-067XW
CENTER_NAME    = EARTH
REF_FRAME      = TEME
TIME_SYSTEM    = UTC
MEAN_ELEMENT_THEORY = SGP/SGP4

EPOCH          = 2025-12-21T16:09:10.415808
MEAN_MOTION    = 15.52740161
ECCENTRICITY   = .00040642
INCLINATION    = 51.6307
RA_OF_ASC_NODE = 97.9437
ARG_OF_PERICENTER = 256.0944
MEAN_ANOMALY   = 103.9594

EPHEMERIS_TYPE = 0
CLASSIFICATION_TYPE = U
NORAD_CAT_ID   = 66910
ELEMENT_SET_NO = 999
REV_AT_EPOCH   = 300
BSTAR          = .90790144E-3
MEAN_MOTION_DOT = .571E-3
MEAN_MOTION_DDOT = 0

CCSDS_OMM_VERS = 2.0
CREATION_DATE  = 
ORIGINATOR     = 

OBJECT_NAME    = 1998-067XX
OBJECT_ID      = 1998-067XX
CENTER_NAME    = EARTH
REF_FRAME      = TEME
TIME_SYSTEM    = UTC
MEAN_ELEMENT_THEORY = SGP/SGP4

EPOCH          = 2025-12-21T12:59:52.344384
MEAN_MOTION    = 15.53156659
ECCENTRICITY   = .0003822
INCLINATION    = 51.6308
RA_OF_ASC_NODE = 98.5657
ARG_OF_PERICENTER = 260.7512
MEAN_ANOMALY   = 99.3046

EPHEMERIS_TYPE = 0
CLASSIFICATION_TYPE = U
NORAD_CAT_ID   = 66911
ELEMENT_SET_NO = 999
REV_AT_EPOCH   = 297
BSTAR          = .97482E-3
MEAN_MOTION_DOT = .62319E-3
MEAN_MOTION_DDOT = 0

CCSDS_OMM_VERS = 2.0
CREATION_DATE  = 
ORIGINATOR     = 

OBJECT_NAME    = 1998-067XY
OBJECT_ID      = 1998-067XY
CENTER_NAME    = EARTH
REF_FRAME      = TEME
TIME_SYSTEM    = UTC
MEAN_ELEMENT_THEORY = SGP/SGP4

EPOCH          = 2025-12-21T11:41:25.287072
MEAN_MOTION    = 15.51934859
ECCENTRICITY   = .0004003
INCLINATION    = 51.6317
RA_OF_ASC_NODE = 98.9521
ARG_OF_PERICENTER = 271.7448
MEAN_ANOMALY   = 88.3083

EPHEMERIS_TYPE = 0
CLASSIFICATION_TYPE = U
NORAD_CAT_ID   = 66912
ELEMENT_SET_NO = 999
REV_AT_EPOCH   = 296
BSTAR          = .71547257E-3
MEAN_MOTION_DOT = .4353E-3
MEAN_MOTION_DDOT = 0

